ORBCOMM FM24            
1 25478U 98053D   25196.51036786  .00000627  00000+0  25135-3 0  9993
2 25478  45.0073 134.7980 0003770 348.4648  11.6114 14.38145871401521
ORBCOMM FM25            
1 25479U 98053E   25196.55172764  .00000712  00000+0  27933-3 0  9998
2 25479  45.0064 132.8764 0005647   8.6064 351.4881 14.38118623401827
ORBCOMM FM26            
1 25480U 98053F   25196.51231332  .00000554  00000+0  23187-3 0  9994
2 25480  45.0062 129.7253 0006790  28.8266 331.2956 14.37173224401728
ORBCOMM FM30            
1 25980U 99065A   25196.63807856  .00000474  00000+0  20442-3 0  9998
2 25980  45.0327 315.0439 0007460 162.4941 197.6166 14.37341729338546
ORBCOMM FM32            
1 25982U 99065C   25196.53885825  .00000537  00000+0  23005-3 0  9999
2 25982  45.0171 325.7651 0007503 177.4469 182.6418 14.36324692338675
